[{"OBJECT_NAME":"STARLINK-33545","OBJECT_ID":"2024-220P","EPOCH":"2026-03-09T10:12:03.261600","MEAN_MOTION":15.27607917,"ECCENTRICITY":0.00031045,"INCLINATION":43.0013,"RA_OF_ASC_NODE":206.7886,"ARG_OF_PERICENTER":295.1029,"MEAN_ANOMALY":64.9501,"EPHEMERIS_TYPE":0,"CLASSIFICATION_TYPE":"U","NORAD_CAT_ID":62101,"ELEMENT_SET_NO":999,"REV_AT_EPOCH":7298,"BSTAR":0.0014409794,"MEAN_MOTION_DOT":0.00039641,"MEAN_MOTION_DDOT":0},{"OBJECT_NAME":"OBJECT J","OBJECT_ID":"2025-155J","EPOCH":"2026-03-09T22:09:22.347648","MEAN_MOTION":15.2758258,"ECCENTRICITY":0.00088188,"INCLINATION":97.4475,"RA_OF_ASC_NODE":37.3123,"ARG_OF_PERICENTER":150.071,"MEAN_ANOMALY":210.1035,"EPHEMERIS_TYPE":0,"CLASSIFICATION_TYPE":"U","NORAD_CAT_ID":64884,"ELEMENT_SET_NO":999,"REV_AT_EPOCH":6559,"BSTAR":0.00051444498,"MEAN_MOTION_DOT":0.00013827,"MEAN_MOTION_DDOT":0}]
